TWILIGHT C              
1 67365U 26004C   26034.49190387  .00005956  00000+0  66783-3 0  9992
2 67365  97.7973  35.2456 0007397 211.4764 148.6010 14.87161952  3419
TWILIGHT D              
1 67366U 26004D   26034.49161431  .00003786  00000+0  42711-3 0  9995
2 67366  97.8030  35.2538 0008013 199.9498 160.1406 14.87128890  3418
TWILIGHT E              
1 67367U 26004E   26034.49014990  .00006142  00000+0  68651-3 0  9993
2 67367  97.7961  35.2461 0006854 213.0085 147.0704 14.87284582  3413
TWILIGHT F              
1 67368U 26004F   26034.48957561  .00005854  00000+0  65417-3 0  9999
2 67368  97.8022  35.2561 0007354 200.8944 159.1973 14.87310688  3417
TWILIGHT G              
1 67369U 26004G   26034.48894890  .00003134  00000+0  35353-3 0  9990
2 67369  97.7952  35.2467 0006269 215.1499 144.9305 14.87273902  3410
TWILIGHT H              
1 67370U 26004H   26034.48786194  .00006499  00000+0  72366-3 0  9991
2 67370  97.7950  35.2473 0005953 214.0753 146.0082 14.87419868  3415
TWILIGHT J              
1 67371U 26004J   26034.48243559  .00007746  00000+0  85268-3 0  9996
2 67371  97.7991  35.2606 0005325 196.3201 163.7845 14.87828731  3418
TWILIGHT K              
1 67372U 26004K   26034.47821553  .00003316  00000+0  36744-3 0  9996
2 67372  97.7970  35.2620 0003685 190.0057 170.1086 14.87968515  3413
TWILIGHT L              
1 67373U 26004L   26034.48425745  .00003024  00000+0  33879-3 0  9993
2 67373  97.7984  35.2570 0005164 203.3237 156.7746 14.87573006  3415
TWILIGHT M              
1 67374U 26004M   26034.47916795  .00003996  00000+0  44189-3 0  9997
2 67374  97.7969  35.2594 0003961 190.7441 169.3691 14.87931479  3415
TWILIGHT N              
1 67375U 26004N   26034.47876417  .00003062  00000+0  33985-3 0  9990
2 67375  97.8005  35.2688 0004566 186.6622 173.4535 14.87951439  3410
TWILIGHT P              
1 67376U 26004P   26034.48104027  .00002995  00000+0  33382-3 0  9998
2 67376  97.8002  35.2647 0004868 193.0600 167.0491 14.87794872  3412
