CCSDS_OMM_VERS = 2.0
CREATION_DATE  = 
ORIGINATOR     = 

OBJECT_NAME    = TWILIGHT C
OBJECT_ID      = 2026-004C
CENTER_NAME    = EARTH
REF_FRAME      = TEME
TIME_SYSTEM    = UTC
MEAN_ELEMENT_THEORY = SGP/SGP4

EPOCH          = 2026-02-03T11:48:20.494368
MEAN_MOTION    = 14.87161952
ECCENTRICITY   = .0007397
INCLINATION    = 97.7973
RA_OF_ASC_NODE = 35.2456
ARG_OF_PERICENTER = 211.4764
MEAN_ANOMALY   = 148.6010

EPHEMERIS_TYPE = 0
CLASSIFICATION_TYPE = U
NORAD_CAT_ID   = 67365
ELEMENT_SET_NO = 999
REV_AT_EPOCH   = 341
BSTAR          = .66783E-3
MEAN_MOTION_DOT = .5956E-4
MEAN_MOTION_DDOT = 0

CCSDS_OMM_VERS = 2.0
CREATION_DATE  = 
ORIGINATOR     = 

OBJECT_NAME    = TWILIGHT D
OBJECT_ID      = 2026-004D
CENTER_NAME    = EARTH
REF_FRAME      = TEME
TIME_SYSTEM    = UTC
MEAN_ELEMENT_THEORY = SGP/SGP4

EPOCH          = 2026-02-03T11:47:55.476384
MEAN_MOTION    = 14.87128890
ECCENTRICITY   = .0008013
INCLINATION    = 97.8030
RA_OF_ASC_NODE = 35.2538
ARG_OF_PERICENTER = 199.9498
MEAN_ANOMALY   = 160.1406

EPHEMERIS_TYPE = 0
CLASSIFICATION_TYPE = U
NORAD_CAT_ID   = 67366
ELEMENT_SET_NO = 999
REV_AT_EPOCH   = 341
BSTAR          = .42711E-3
MEAN_MOTION_DOT = .3786E-4
MEAN_MOTION_DDOT = 0

CCSDS_OMM_VERS = 2.0
CREATION_DATE  = 
ORIGINATOR     = 

OBJECT_NAME    = TWILIGHT E
OBJECT_ID      = 2026-004E
CENTER_NAME    = EARTH
REF_FRAME      = TEME
TIME_SYSTEM    = UTC
MEAN_ELEMENT_THEORY = SGP/SGP4

EPOCH          = 2026-02-03T11:45:48.951360
MEAN_MOTION    = 14.87284582
ECCENTRICITY   = .0006854
INCLINATION    = 97.7961
RA_OF_ASC_NODE = 35.2461
ARG_OF_PERICENTER = 213.0085
MEAN_ANOMALY   = 147.0704

EPHEMERIS_TYPE = 0
CLASSIFICATION_TYPE = U
NORAD_CAT_ID   = 67367
ELEMENT_SET_NO = 999
REV_AT_EPOCH   = 341
BSTAR          = .68651E-3
MEAN_MOTION_DOT = .6142E-4
MEAN_MOTION_DDOT = 0

CCSDS_OMM_VERS = 2.0
CREATION_DATE  = 
ORIGINATOR     = 

OBJECT_NAME    = TWILIGHT F
OBJECT_ID      = 2026-004F
CENTER_NAME    = EARTH
REF_FRAME      = TEME
TIME_SYSTEM    = UTC
MEAN_ELEMENT_THEORY = SGP/SGP4

EPOCH          = 2026-02-03T11:44:59.332704
MEAN_MOTION    = 14.87310688
ECCENTRICITY   = .0007354
INCLINATION    = 97.8022
RA_OF_ASC_NODE = 35.2561
ARG_OF_PERICENTER = 200.8944
MEAN_ANOMALY   = 159.1973

EPHEMERIS_TYPE = 0
CLASSIFICATION_TYPE = U
NORAD_CAT_ID   = 67368
ELEMENT_SET_NO = 999
REV_AT_EPOCH   = 341
BSTAR          = .65417E-3
MEAN_MOTION_DOT = .5854E-4
MEAN_MOTION_DDOT = 0

CCSDS_OMM_VERS = 2.0
CREATION_DATE  = 
ORIGINATOR     = 

OBJECT_NAME    = TWILIGHT G
OBJECT_ID      = 2026-004G
CENTER_NAME    = EARTH
REF_FRAME      = TEME
TIME_SYSTEM    = UTC
MEAN_ELEMENT_THEORY = SGP/SGP4

EPOCH          = 2026-02-03T11:44:05.184960
MEAN_MOTION    = 14.87273902
ECCENTRICITY   = .0006269
INCLINATION    = 97.7952
RA_OF_ASC_NODE = 35.2467
ARG_OF_PERICENTER = 215.1499
MEAN_ANOMALY   = 144.9305

EPHEMERIS_TYPE = 0
CLASSIFICATION_TYPE = U
NORAD_CAT_ID   = 67369
ELEMENT_SET_NO = 999
REV_AT_EPOCH   = 341
BSTAR          = .35353E-3
MEAN_MOTION_DOT = .3134E-4
MEAN_MOTION_DDOT = 0

CCSDS_OMM_VERS = 2.0
CREATION_DATE  = 
ORIGINATOR     = 

OBJECT_NAME    = TWILIGHT H
OBJECT_ID      = 2026-004H
CENTER_NAME    = EARTH
REF_FRAME      = TEME
TIME_SYSTEM    = UTC
MEAN_ELEMENT_THEORY = SGP/SGP4

EPOCH          = 2026-02-03T11:42:31.271616
MEAN_MOTION    = 14.87419868
ECCENTRICITY   = .0005953
INCLINATION    = 97.7950
RA_OF_ASC_NODE = 35.2473
ARG_OF_PERICENTER = 214.0753
MEAN_ANOMALY   = 146.0082

EPHEMERIS_TYPE = 0
CLASSIFICATION_TYPE = U
NORAD_CAT_ID   = 67370
ELEMENT_SET_NO = 999
REV_AT_EPOCH   = 341
BSTAR          = .72366E-3
MEAN_MOTION_DOT = .6499E-4
MEAN_MOTION_DDOT = 0

CCSDS_OMM_VERS = 2.0
CREATION_DATE  = 
ORIGINATOR     = 

OBJECT_NAME    = TWILIGHT J
OBJECT_ID      = 2026-004J
CENTER_NAME    = EARTH
REF_FRAME      = TEME
TIME_SYSTEM    = UTC
MEAN_ELEMENT_THEORY = SGP/SGP4

EPOCH          = 2026-02-03T11:34:42.434976
MEAN_MOTION    = 14.87828731
ECCENTRICITY   = .0005325
INCLINATION    = 97.7991
RA_OF_ASC_NODE = 35.2606
ARG_OF_PERICENTER = 196.3201
MEAN_ANOMALY   = 163.7845

EPHEMERIS_TYPE = 0
CLASSIFICATION_TYPE = U
NORAD_CAT_ID   = 67371
ELEMENT_SET_NO = 999
REV_AT_EPOCH   = 341
BSTAR          = .85268E-3
MEAN_MOTION_DOT = .7746E-4
MEAN_MOTION_DDOT = 0

CCSDS_OMM_VERS = 2.0
CREATION_DATE  = 
ORIGINATOR     = 

OBJECT_NAME    = TWILIGHT K
OBJECT_ID      = 2026-004K
CENTER_NAME    = EARTH
REF_FRAME      = TEME
TIME_SYSTEM    = UTC
MEAN_ELEMENT_THEORY = SGP/SGP4

EPOCH          = 2026-02-03T11:28:37.821792
MEAN_MOTION    = 14.87968515
ECCENTRICITY   = .0003685
INCLINATION    = 97.7970
RA_OF_ASC_NODE = 35.2620
ARG_OF_PERICENTER = 190.0057
MEAN_ANOMALY   = 170.1086

EPHEMERIS_TYPE = 0
CLASSIFICATION_TYPE = U
NORAD_CAT_ID   = 67372
ELEMENT_SET_NO = 999
REV_AT_EPOCH   = 341
BSTAR          = .36744E-3
MEAN_MOTION_DOT = .3316E-4
MEAN_MOTION_DDOT = 0

CCSDS_OMM_VERS = 2.0
CREATION_DATE  = 
ORIGINATOR     = 

OBJECT_NAME    = TWILIGHT L
OBJECT_ID      = 2026-004L
CENTER_NAME    = EARTH
REF_FRAME      = TEME
TIME_SYSTEM    = UTC
MEAN_ELEMENT_THEORY = SGP/SGP4

EPOCH          = 2026-02-03T11:37:19.843680
MEAN_MOTION    = 14.87573006
ECCENTRICITY   = .0005164
INCLINATION    = 97.7984
RA_OF_ASC_NODE = 35.2570
ARG_OF_PERICENTER = 203.3237
MEAN_ANOMALY   = 156.7746

EPHEMERIS_TYPE = 0
CLASSIFICATION_TYPE = U
NORAD_CAT_ID   = 67373
ELEMENT_SET_NO = 999
REV_AT_EPOCH   = 341
BSTAR          = .33879E-3
MEAN_MOTION_DOT = .3024E-4
MEAN_MOTION_DDOT = 0

CCSDS_OMM_VERS = 2.0
CREATION_DATE  = 
ORIGINATOR     = 

OBJECT_NAME    = TWILIGHT M
OBJECT_ID      = 2026-004M
CENTER_NAME    = EARTH
REF_FRAME      = TEME
TIME_SYSTEM    = UTC
MEAN_ELEMENT_THEORY = SGP/SGP4

EPOCH          = 2026-02-03T11:30:00.110880
MEAN_MOTION    = 14.87931479
ECCENTRICITY   = .0003961
INCLINATION    = 97.7969
RA_OF_ASC_NODE = 35.2594
ARG_OF_PERICENTER = 190.7441
MEAN_ANOMALY   = 169.3691

EPHEMERIS_TYPE = 0
CLASSIFICATION_TYPE = U
NORAD_CAT_ID   = 67374
ELEMENT_SET_NO = 999
REV_AT_EPOCH   = 341
BSTAR          = .44189E-3
MEAN_MOTION_DOT = .3996E-4
MEAN_MOTION_DDOT = 0

CCSDS_OMM_VERS = 2.0
CREATION_DATE  = 
ORIGINATOR     = 

OBJECT_NAME    = TWILIGHT N
OBJECT_ID      = 2026-004N
CENTER_NAME    = EARTH
REF_FRAME      = TEME
TIME_SYSTEM    = UTC
MEAN_ELEMENT_THEORY = SGP/SGP4

EPOCH          = 2026-02-03T11:29:25.224288
MEAN_MOTION    = 14.87951439
ECCENTRICITY   = .0004566
INCLINATION    = 97.8005
RA_OF_ASC_NODE = 35.2688
ARG_OF_PERICENTER = 186.6622
MEAN_ANOMALY   = 173.4535

EPHEMERIS_TYPE = 0
CLASSIFICATION_TYPE = U
NORAD_CAT_ID   = 67375
ELEMENT_SET_NO = 999
REV_AT_EPOCH   = 341
BSTAR          = .33985E-3
MEAN_MOTION_DOT = .3062E-4
MEAN_MOTION_DDOT = 0

CCSDS_OMM_VERS = 2.0
CREATION_DATE  = 
ORIGINATOR     = 

OBJECT_NAME    = TWILIGHT P
OBJECT_ID      = 2026-004P
CENTER_NAME    = EARTH
REF_FRAME      = TEME
TIME_SYSTEM    = UTC
MEAN_ELEMENT_THEORY = SGP/SGP4

EPOCH          = 2026-02-03T11:32:41.879328
MEAN_MOTION    = 14.87794872
ECCENTRICITY   = .0004868
INCLINATION    = 97.8002
RA_OF_ASC_NODE = 35.2647
ARG_OF_PERICENTER = 193.0600
MEAN_ANOMALY   = 167.0491

EPHEMERIS_TYPE = 0
CLASSIFICATION_TYPE = U
NORAD_CAT_ID   = 67376
ELEMENT_SET_NO = 999
REV_AT_EPOCH   = 341
BSTAR          = .33382E-3
MEAN_MOTION_DOT = .2995E-4
MEAN_MOTION_DDOT = 0

